STARLINK-35345          
1 65833U 25221L   26164.83802693  .00029938  00000+0  89389-3 0  9995
2 65833  53.1598   1.0694 0001258  73.7643 286.3498 15.34391299 40813
STARLINK-35320          
1 65834U 25221M   26164.86203704  .00019422  00000+0  66567-3 0  9997
2 65834  53.1594   1.9322 0001247  94.7135 265.4008 15.30223121 39451
STARLINK-35349          
1 65835U 25221N   26164.73775108  .00024387  00000+0  83295-3 0  9999
2 65835  53.1611   2.5791 0001149  81.6767 278.4364 15.30193598 39437
STARLINK-35356          
1 65836U 25221P   26164.81878060  .00019736  00000+0  67717-3 0  9993
2 65836  53.1613   1.6599 0001309  87.2841 272.8310 15.30176980 39456
STARLINK-35314          
1 65837U 25221Q   26164.82329970  .00024353  00000+0  72985-3 0  9990
2 65837  53.1603   0.9808 0001261  88.2586 271.8561 15.34387414 39463
STARLINK-35324          
1 65838U 25221R   26164.87154571  .00018369  00000+0  63085-3 0  9990
2 65838  53.1622   1.9892 0001086  83.4306 276.6818 15.30197046 39454
STARLINK-35102          
1 65839U 25221S   26164.83592316  .00014848  00000+0  44977-3 0  9997
2 65839  53.1593   1.0590 0001080  81.0980 279.0145 15.34394535 39461
STARLINK-35364          
1 65840U 25221T   26164.85898018  .00021658  00000+0  65044-3 0  9994
2 65840  53.1597   0.4958 0001182  89.8970 270.2168 15.34392456 39475
STARLINK-35298          
1 65842U 25221V   26164.81488392  .00032214  00000+0  96048-3 0  9990
2 65842  53.1605   0.9289 0001048  78.3575 281.7545 15.34399353 39462
STARLINK-35301          
1 65843U 25221W   26164.80436236  .00013849  00000+0  42041-3 0  9997
2 65843  53.1625   0.8573 0001643 105.8365 254.2819 15.34388948 39461
STARLINK-35148          
1 65844U 25221X   26164.80226211  .00022907  00000+0  68727-3 0  9992
2 65844  53.1617   0.8493 0001419  93.9060 266.2105 15.34389222 39461
STARLINK-35302          
1 65845U 25221Y   26164.86318616  .00027056  00000+0  80906-3 0  9993
2 65845  53.1601   0.5201 0001230  80.3511 279.7630 15.34398199 39477
STARLINK-35290          
1 65846U 25221Z   26164.83171462  .00036612  00000+0  10892-2 0  9991
2 65846  53.1604   1.0274 0000909  78.3397 281.7708 15.34406749 39467
STARLINK-35262          
1 65847U 25221AA  26164.81150653  .00020478  00000+0  70175-3 0  9993
2 65847  53.1617   2.3224 0001260  91.2531 268.8614 15.30193139 40798
STARLINK-35308          
1 65848U 25221AB  26164.81277966  .00022795  00000+0  68387-3 0  9997
2 65848  53.1617   0.9131 0001440  91.5370 268.5797 15.34393386 40816
STARLINK-35231          
1 65849U 25221AC  26164.81467718  .00022365  00000+0  76448-3 0  9994
2 65849  53.1617   2.3415 0001146  78.6000 281.5129 15.30221215 40795
STARLINK-35252          
1 65850U 25221AD  26164.80834847  .00018305  00000+0  62829-3 0  9993
2 65850  53.1625   2.3029 0001628 101.7117 258.4067 15.30218753 40796
STARLINK-35208          
1 65854U 25223A   26164.40923331  .00026825  00000+0  80243-3 0  9998
2 65854  53.1579 208.6581 0001304  79.8855 280.2295 15.34391428 38874
STARLINK-35200          
1 65855U 25223B   26164.82364606  .00008604  00000+0  30229-3 0  9993
2 65855  53.1575 207.6771 0001607  62.9851 297.1314 15.30201238 38926
STARLINK-35459          
1 65856U 25223C   26164.40504241  .00019293  00000+0  58018-3 0  9991
2 65856  53.1581 208.6334 0001349  93.5296 266.5861 15.34426400 38871
STARLINK-35489          
1 65857U 25223D   26164.82109826  .00019625  00000+0  59015-3 0  9995
2 65857  53.1573 206.9599 0001715  73.3188 286.8003 15.34414889 38938
STARLINK-35199          
1 65858U 25223E   26164.41698261  .00019036  00000+0  65315-3 0  9993
2 65858  53.1566 209.4104 0001059  78.3054 281.8065 15.30202335 38861
STARLINK-35408          
1 65859U 25223F   26164.82740892  .00014646  00000+0  44380-3 0  9998
2 65859  53.1582 207.0017 0001296  81.0257 279.0893 15.34397760 38933
STARLINK-35303          
1 65860U 25223G   26164.82320786  .00015374  00000+0  46506-3 0  9997
2 65860  53.1580 206.9708 0001031  76.8209 283.2908 15.34410347 38935
STARLINK-35258          
1 65861U 25223H   26164.60674187  .00006740  00000+0  21054-3 0  9999
2 65861  53.1579 207.7555 0001341  84.8951 275.2204 15.34384771 38908
STARLINK-35386          
1 65862U 25223J   26164.85265838  .00018988  00000+0  57179-3 0  9990
2 65862  53.1585 207.1573 0001410  71.2808 288.8347 15.34394921 38937
STARLINK-35469          
1 65863U 25223K   26164.81057893  .00018189  00000+0  54804-3 0  9992
2 65863  53.1576 206.8966 0001218  95.9295 264.1846 15.34406198 38930
STARLINK-35471          
1 65864U 25223L   26164.40959461  .00014063  00000+0  48605-3 0  9999
2 65864  53.1571 209.3634 0001041  81.1419 278.9700 15.30197851 38868
STARLINK-35475          
1 65865U 25223M   26164.41555029  .00018235  00000+0  54956-3 0  9994
2 65865  53.1578 208.6913 0001131  78.7720 281.3409 15.34397508 38875
STARLINK-35312          
1 65866U 25223N   26164.81689004  .00019353  00000+0  58247-3 0  9999
2 65866  53.1580 206.9331 0000935  96.9239 263.1870 15.34398595 38936
