OBJECT_NAME,OBJECT_ID,EPOCH,MEAN_MOTION,ECCENTRICITY,INCLINATION,RA_OF_ASC_NODE,ARG_OF_PERICENTER,MEAN_ANOMALY,EPHEMERIS_TYPE,CLASSIFICATION_TYPE,NORAD_CAT_ID,ELEMENT_SET_NO,REV_AT_EPOCH,BSTAR,MEAN_MOTION_DOT,MEAN_MOTION_DDOT
STARLINK-35345,2025-221L,2026-06-13T20:06:45.526752,15.34391299,.00012581,53.1598,1.0694,73.7643,286.3498,0,U,65833,999,4081,.89389419E-3,.29938E-3,0
STARLINK-35320,2025-221M,2026-06-13T20:41:20.000256,15.30223121,.00012471,53.1594,1.9322,94.7135,265.4008,0,U,65834,999,3945,.66566543E-3,.19422E-3,0
STARLINK-35349,2025-221N,2026-06-13T17:42:21.693312,15.30193598,.00011497,53.1611,2.5791,81.6767,278.4364,0,U,65835,999,3943,.8329525E-3,.24387E-3,0
STARLINK-35356,2025-221P,2026-06-13T19:39:02.643840,15.30176980,.00013096,53.1613,1.6599,87.2841,272.8310,0,U,65836,999,3945,.67717248E-3,.19736E-3,0
STARLINK-35314,2025-221Q,2026-06-13T19:45:33.094080,15.34387414,.00012612,53.1603,0.9808,88.2586,271.8561,0,U,65837,999,3946,.72985167E-3,.24353E-3,0
STARLINK-35324,2025-221R,2026-06-13T20:55:01.549344,15.30197046,.00010867,53.1622,1.9892,83.4306,276.6818,0,U,65838,999,3945,.63084914E-3,.18369E-3,0
STARLINK-35102,2025-221S,2026-06-13T20:03:43.761024,15.34394535,.00010804,53.1593,1.0590,81.0980,279.0145,0,U,65839,999,3946,.44977278E-3,.14848E-3,0
STARLINK-35364,2025-221T,2026-06-13T20:36:55.887552,15.34392456,.00011824,53.1597,0.4958,89.8970,270.2168,0,U,65840,999,3947,.6504384E-3,.21658E-3,0
STARLINK-35298,2025-221V,2026-06-13T19:33:25.970688,15.34399353,.00010489,53.1605,0.9289,78.3575,281.7545,0,U,65842,999,3946,.96047924E-3,.32214E-3,0
STARLINK-35301,2025-221W,2026-06-13T19:18:16.907904,15.34388948,.00016436,53.1625,0.8573,105.8365,254.2819,0,U,65843,999,3946,.42040928E-3,.13849E-3,0
STARLINK-35148,2025-221X,2026-06-13T19:15:15.446304,15.34389222,.00014191,53.1617,0.8493,93.9060,266.2105,0,U,65844,999,3946,.68726527E-3,.22907E-3,0
STARLINK-35302,2025-221Y,2026-06-13T20:42:59.284224,15.34398199,.00012306,53.1601,0.5201,80.3511,279.7630,0,U,65845,999,3947,.80905876E-3,.27056E-3,0
STARLINK-35290,2025-221Z,2026-06-13T19:57:40.143168,15.34406749,.00009097,53.1604,1.0274,78.3397,281.7708,0,U,65846,999,3946,.10892116E-2,.36612E-3,0
STARLINK-35262,2025-221AA,2026-06-13T19:28:34.164192,15.30193139,.000126,53.1617,2.3224,91.2531,268.8614,0,U,65847,999,4079,.70175186E-3,.20478E-3,0
STARLINK-35308,2025-221AB,2026-06-13T19:30:24.162624,15.34393386,.00014403,53.1617,0.9131,91.5370,268.5797,0,U,65848,999,4081,.68386807E-3,.22795E-3,0
STARLINK-35231,2025-221AC,2026-06-13T19:33:08.108352,15.30221215,.0001146,53.1617,2.3415,78.6000,281.5129,0,U,65849,999,4079,.76447517E-3,.22365E-3,0
STARLINK-35252,2025-221AD,2026-06-13T19:24:01.307808,15.30218753,.00016288,53.1625,2.3029,101.7117,258.4067,0,U,65850,999,4079,.62828673E-3,.18305E-3,0
STARLINK-35208,2025-223A,2026-06-13T09:49:17.757984,15.34391428,.00013046,53.1579,208.6581,79.8855,280.2295,0,U,65854,999,3887,.80243364E-3,.26825E-3,0
STARLINK-35200,2025-223B,2026-06-13T19:46:03.019584,15.30201238,.00016079,53.1575,207.6771,62.9851,297.1314,0,U,65855,999,3892,.3022906E-3,.8604E-4,0
STARLINK-35459,2025-223C,2026-06-13T09:43:15.664224,15.34426400,.0001349,53.1581,208.6334,93.5296,266.5861,0,U,65856,999,3887,.58018378E-3,.19293E-3,0
STARLINK-35489,2025-223D,2026-06-13T19:42:22.889664,15.34414889,.00017157,53.1573,206.9599,73.3188,286.8003,0,U,65857,999,3893,.59015444E-3,.19625E-3,0
STARLINK-35199,2025-223E,2026-06-13T10:00:27.297504,15.30202335,.00010593,53.1566,209.4104,78.3054,281.8065,0,U,65858,999,3886,.65314765E-3,.19036E-3,0
STARLINK-35408,2025-223F,2026-06-13T19:51:28.130688,15.34397760,.00012964,53.1582,207.0017,81.0257,279.0893,0,U,65859,999,3893,.44379852E-3,.14646E-3,0
STARLINK-35303,2025-223G,2026-06-13T19:45:25.159104,15.34410347,.00010318,53.1580,206.9708,76.8209,283.2908,0,U,65860,999,3893,.46506029E-3,.15374E-3,0
STARLINK-35258,2025-223H,2026-06-13T14:33:42.497568,15.34384771,.00013412,53.1579,207.7555,84.8951,275.2204,0,U,65861,999,3890,.21054129E-3,.674E-4,0
STARLINK-35386,2025-223J,2026-06-13T20:27:49.684032,15.34394921,.00014106,53.1585,207.1573,71.2808,288.8347,0,U,65862,999,3893,.57178968E-3,.18988E-3,0
STARLINK-35469,2025-223K,2026-06-13T19:27:14.019552,15.34406198,.00012187,53.1576,206.8966,95.9295,264.1846,0,U,65863,999,3893,.54804226E-3,.18189E-3,0
STARLINK-35471,2025-223L,2026-06-13T09:49:48.974304,15.30197851,.00010419,53.1571,209.3634,81.1419,278.9700,0,U,65864,999,3886,.48604931E-3,.14063E-3,0
STARLINK-35475,2025-223M,2026-06-13T09:58:23.545056,15.34397508,.00011311,53.1578,208.6913,78.7720,281.3409,0,U,65865,999,3887,.54956147E-3,.18235E-3,0
STARLINK-35312,2025-223N,2026-06-13T19:36:19.299456,15.34398595,.00009352,53.1580,206.9331,96.9239,263.1870,0,U,65866,999,3893,.58246912E-3,.19353E-3,0
